ORBCOMM FM24            
1 25478U 98053D   25065.34177670  .00001976  00000+0  69861-3 0  9999
2 25478  45.0084  36.5975 0002036   3.5917 356.4945 14.37654763382645
ORBCOMM FM25            
1 25479U 98053E   25065.58932914  .00002110  00000+0  74303-3 0  9994
2 25479  45.0078  33.6831 0003044  59.7808 300.3341 14.37637705382971
ORBCOMM FM26            
1 25480U 98053F   25065.39645391  .00001745  00000+0  63350-3 0  9998
2 25480  45.0081  30.3364 0004245  96.3795 263.7536 14.36762427382863
ORBCOMM FM27            
1 25481U 98053G   25065.37014247  .00002108  00000+0  74243-3 0  9994
2 25481  45.0060  34.9569 0001982 321.0178  39.0527 14.37644212382873
ORBCOMM FM28            
1 25482U 98053H   25065.21451872  .00001620  00000+0  57856-3 0  9996
2 25482  45.0071 333.3638 0003367 127.1583 232.9573 14.37895144383534
ORBCOMM FM30            
1 25980U 99065A   25065.53690360  .00001779  00000+0  64288-3 0  9997
2 25980  45.0307 215.4798 0007510 210.2619 149.7796 14.36922434319683
ORBCOMM FM31            
1 25981U 99065B   25065.50654790  .00001751  00000+0  63393-3 0  9998
2 25981  45.0221 209.1458 0004800 228.5596 131.4840 14.36883245319232
ORBCOMM FM32            
1 25982U 99065C   25065.55398628  .00001689  00000+0  62517-3 0  9996
2 25982  45.0148 224.8060 0006579 228.3139 131.7146 14.35924542319844
