<?xml version="1.0" encoding="UTF-8"?>
<ndm xmlns:xsi="http://www.w3.org/2001/XMLSchema-instance" xsi:noNamespaceSchemaLocation="https://sanaregistry.org/r/ndmxml_unqualified/ndmxml-2.0.0-master-2.0.xsd">
<omm id="CCSDS_OMM_VERS" version="2.0">
<header><CREATION_DATE/><ORIGINATOR/></header><body><segment><metadata><OBJECT_NAME>ORBCOMM FM24</OBJECT_NAME><OBJECT_ID>1998-053D</OBJECT_ID><CENTER_NAME>EARTH</CENTER_NAME><REF_FRAME>TEME</REF_FRAME><TIME_SYSTEM>UTC</TIME_SYSTEM><MEAN_ELEMENT_THEORY>SGP4</MEAN_ELEMENT_THEORY></metadata><data><meanElements><EPOCH>2025-03-06T08:12:09.506880</EPOCH><MEAN_MOTION>14.37654763</MEAN_MOTION><ECCENTRICITY>.0002036</ECCENTRICITY><INCLINATION>45.0084</INCLINATION><RA_OF_ASC_NODE>36.5975</RA_OF_ASC_NODE><ARG_OF_PERICENTER>3.5917</ARG_OF_PERICENTER><MEAN_ANOMALY>356.4945</MEAN_ANOMALY></meanElements><tleParameters><EPHEMERIS_TYPE>0</EPHEMERIS_TYPE><CLASSIFICATION_TYPE>U</CLASSIFICATION_TYPE><NORAD_CAT_ID>25478</NORAD_CAT_ID><ELEMENT_SET_NO>999</ELEMENT_SET_NO><REV_AT_EPOCH>38264</REV_AT_EPOCH><BSTAR>.69861E-3</BSTAR><MEAN_MOTION_DOT>.1976E-4</MEAN_MOTION_DOT><MEAN_MOTION_DDOT>0</MEAN_MOTION_DDOT></tleParameters></data></segment></body></omm>
<omm id="CCSDS_OMM_VERS" version="2.0">
<header><CREATION_DATE/><ORIGINATOR/></header><body><segment><metadata><OBJECT_NAME>ORBCOMM FM25</OBJECT_NAME><OBJECT_ID>1998-053E</OBJECT_ID><CENTER_NAME>EARTH</CENTER_NAME><REF_FRAME>TEME</REF_FRAME><TIME_SYSTEM>UTC</TIME_SYSTEM><MEAN_ELEMENT_THEORY>SGP4</MEAN_ELEMENT_THEORY></metadata><data><meanElements><EPOCH>2025-03-06T14:08:38.037696</EPOCH><MEAN_MOTION>14.37637705</MEAN_MOTION><ECCENTRICITY>.0003044</ECCENTRICITY><INCLINATION>45.0078</INCLINATION><RA_OF_ASC_NODE>33.6831</RA_OF_ASC_NODE><ARG_OF_PERICENTER>59.7808</ARG_OF_PERICENTER><MEAN_ANOMALY>300.3341</MEAN_ANOMALY></meanElements><tleParameters><EPHEMERIS_TYPE>0</EPHEMERIS_TYPE><CLASSIFICATION_TYPE>U</CLASSIFICATION_TYPE><NORAD_CAT_ID>25479</NORAD_CAT_ID><ELEMENT_SET_NO>999</ELEMENT_SET_NO><REV_AT_EPOCH>38297</REV_AT_EPOCH><BSTAR>.74303E-3</BSTAR><MEAN_MOTION_DOT>.211E-4</MEAN_MOTION_DOT><MEAN_MOTION_DDOT>0</MEAN_MOTION_DDOT></tleParameters></data></segment></body></omm>
<omm id="CCSDS_OMM_VERS" version="2.0">
<header><CREATION_DATE/><ORIGINATOR/></header><body><segment><metadata><OBJECT_NAME>ORBCOMM FM26</OBJECT_NAME><OBJECT_ID>1998-053F</OBJECT_ID><CENTER_NAME>EARTH</CENTER_NAME><REF_FRAME>TEME</REF_FRAME><TIME_SYSTEM>UTC</TIME_SYSTEM><MEAN_ELEMENT_THEORY>SGP4</MEAN_ELEMENT_THEORY></metadata><data><meanElements><EPOCH>2025-03-06T09:30:53.617824</EPOCH><MEAN_MOTION>14.36762427</MEAN_MOTION><ECCENTRICITY>.0004245</ECCENTRICITY><INCLINATION>45.0081</INCLINATION><RA_OF_ASC_NODE>30.3364</RA_OF_ASC_NODE><ARG_OF_PERICENTER>96.3795</ARG_OF_PERICENTER><MEAN_ANOMALY>263.7536</MEAN_ANOMALY></meanElements><tleParameters><EPHEMERIS_TYPE>0</EPHEMERIS_TYPE><CLASSIFICATION_TYPE>U</CLASSIFICATION_TYPE><NORAD_CAT_ID>25480</NORAD_CAT_ID><ELEMENT_SET_NO>999</ELEMENT_SET_NO><REV_AT_EPOCH>38286</REV_AT_EPOCH><BSTAR>.6335E-3</BSTAR><MEAN_MOTION_DOT>.1745E-4</MEAN_MOTION_DOT><MEAN_MOTION_DDOT>0</MEAN_MOTION_DDOT></tleParameters></data></segment></body></omm>
<omm id="CCSDS_OMM_VERS" version="2.0">
<header><CREATION_DATE/><ORIGINATOR/></header><body><segment><metadata><OBJECT_NAME>ORBCOMM FM27</OBJECT_NAME><OBJECT_ID>1998-053G</OBJECT_ID><CENTER_NAME>EARTH</CENTER_NAME><REF_FRAME>TEME</REF_FRAME><TIME_SYSTEM>UTC</TIME_SYSTEM><MEAN_ELEMENT_THEORY>SGP4</MEAN_ELEMENT_THEORY></metadata><data><meanElements><EPOCH>2025-03-06T08:53:00.309408</EPOCH><MEAN_MOTION>14.37644212</MEAN_MOTION><ECCENTRICITY>.0001982</ECCENTRICITY><INCLINATION>45.0060</INCLINATION><RA_OF_ASC_NODE>34.9569</RA_OF_ASC_NODE><ARG_OF_PERICENTER>321.0178</ARG_OF_PERICENTER><MEAN_ANOMALY>39.0527</MEAN_ANOMALY></meanElements><tleParameters><EPHEMERIS_TYPE>0</EPHEMERIS_TYPE><CLASSIFICATION_TYPE>U</CLASSIFICATION_TYPE><NORAD_CAT_ID>25481</NORAD_CAT_ID><ELEMENT_SET_NO>999</ELEMENT_SET_NO><REV_AT_EPOCH>38287</REV_AT_EPOCH><BSTAR>.74243E-3</BSTAR><MEAN_MOTION_DOT>.2108E-4</MEAN_MOTION_DOT><MEAN_MOTION_DDOT>0</MEAN_MOTION_DDOT></tleParameters></data></segment></body></omm>
<omm id="CCSDS_OMM_VERS" version="2.0">
<header><CREATION_DATE/><ORIGINATOR/></header><body><segment><metadata><OBJECT_NAME>ORBCOMM FM28</OBJECT_NAME><OBJECT_ID>1998-053H</OBJECT_ID><CENTER_NAME>EARTH</CENTER_NAME><REF_FRAME>TEME</REF_FRAME><TIME_SYSTEM>UTC</TIME_SYSTEM><MEAN_ELEMENT_THEORY>SGP4</MEAN_ELEMENT_THEORY></metadata><data><meanElements><EPOCH>2025-03-06T05:08:54.417408</EPOCH><MEAN_MOTION>14.37895144</MEAN_MOTION><ECCENTRICITY>.0003367</ECCENTRICITY><INCLINATION>45.0071</INCLINATION><RA_OF_ASC_NODE>333.3638</RA_OF_ASC_NODE><ARG_OF_PERICENTER>127.1583</ARG_OF_PERICENTER><MEAN_ANOMALY>232.9573</MEAN_ANOMALY></meanElements><tleParameters><EPHEMERIS_TYPE>0</EPHEMERIS_TYPE><CLASSIFICATION_TYPE>U</CLASSIFICATION_TYPE><NORAD_CAT_ID>25482</NORAD_CAT_ID><ELEMENT_SET_NO>999</ELEMENT_SET_NO><REV_AT_EPOCH>38353</REV_AT_EPOCH><BSTAR>.57856E-3</BSTAR><MEAN_MOTION_DOT>.162E-4</MEAN_MOTION_DOT><MEAN_MOTION_DDOT>0</MEAN_MOTION_DDOT></tleParameters></data></segment></body></omm>
<omm id="CCSDS_OMM_VERS" version="2.0">
<header><CREATION_DATE/><ORIGINATOR/></header><body><segment><metadata><OBJECT_NAME>ORBCOMM FM30</OBJECT_NAME><OBJECT_ID>1999-065A</OBJECT_ID><CENTER_NAME>EARTH</CENTER_NAME><REF_FRAME>TEME</REF_FRAME><TIME_SYSTEM>UTC</TIME_SYSTEM><MEAN_ELEMENT_THEORY>SGP4</MEAN_ELEMENT_THEORY></metadata><data><meanElements><EPOCH>2025-03-06T12:53:08.471040</EPOCH><MEAN_MOTION>14.36922434</MEAN_MOTION><ECCENTRICITY>.000751</ECCENTRICITY><INCLINATION>45.0307</INCLINATION><RA_OF_ASC_NODE>215.4798</RA_OF_ASC_NODE><ARG_OF_PERICENTER>210.2619</ARG_OF_PERICENTER><MEAN_ANOMALY>149.7796</MEAN_ANOMALY></meanElements><tleParameters><EPHEMERIS_TYPE>0</EPHEMERIS_TYPE><CLASSIFICATION_TYPE>U</CLASSIFICATION_TYPE><NORAD_CAT_ID>25980</NORAD_CAT_ID><ELEMENT_SET_NO>999</ELEMENT_SET_NO><REV_AT_EPOCH>31968</REV_AT_EPOCH><BSTAR>.64288E-3</BSTAR><MEAN_MOTION_DOT>.1779E-4</MEAN_MOTION_DOT><MEAN_MOTION_DDOT>0</MEAN_MOTION_DDOT></tleParameters></data></segment></body></omm>
<omm id="CCSDS_OMM_VERS" version="2.0">
<header><CREATION_DATE/><ORIGINATOR/></header><body><segment><metadata><OBJECT_NAME>ORBCOMM FM31</OBJECT_NAME><OBJECT_ID>1999-065B</OBJECT_ID><CENTER_NAME>EARTH</CENTER_NAME><REF_FRAME>TEME</REF_FRAME><TIME_SYSTEM>UTC</TIME_SYSTEM><MEAN_ELEMENT_THEORY>SGP4</MEAN_ELEMENT_THEORY></metadata><data><meanElements><EPOCH>2025-03-06T12:09:25.738560</EPOCH><MEAN_MOTION>14.36883245</MEAN_MOTION><ECCENTRICITY>.00048</ECCENTRICITY><INCLINATION>45.0221</INCLINATION><RA_OF_ASC_NODE>209.1458</RA_OF_ASC_NODE><ARG_OF_PERICENTER>228.5596</ARG_OF_PERICENTER><MEAN_ANOMALY>131.4840</MEAN_ANOMALY></meanElements><tleParameters><EPHEMERIS_TYPE>0</EPHEMERIS_TYPE><CLASSIFICATION_TYPE>U</CLASSIFICATION_TYPE><NORAD_CAT_ID>25981</NORAD_CAT_ID><ELEMENT_SET_NO>999</ELEMENT_SET_NO><REV_AT_EPOCH>31923</REV_AT_EPOCH><BSTAR>.63393E-3</BSTAR><MEAN_MOTION_DOT>.1751E-4</MEAN_MOTION_DOT><MEAN_MOTION_DDOT>0</MEAN_MOTION_DDOT></tleParameters></data></segment></body></omm>
<omm id="CCSDS_OMM_VERS" version="2.0">
<header><CREATION_DATE/><ORIGINATOR/></header><body><segment><metadata><OBJECT_NAME>ORBCOMM FM32</OBJECT_NAME><OBJECT_ID>1999-065C</OBJECT_ID><CENTER_NAME>EARTH</CENTER_NAME><REF_FRAME>TEME</REF_FRAME><TIME_SYSTEM>UTC</TIME_SYSTEM><MEAN_ELEMENT_THEORY>SGP4</MEAN_ELEMENT_THEORY></metadata><data><meanElements><EPOCH>2025-03-06T13:17:44.414592</EPOCH><MEAN_MOTION>14.35924542</MEAN_MOTION><ECCENTRICITY>.0006579</ECCENTRICITY><INCLINATION>45.0148</INCLINATION><RA_OF_ASC_NODE>224.8060</RA_OF_ASC_NODE><ARG_OF_PERICENTER>228.3139</ARG_OF_PERICENTER><MEAN_ANOMALY>131.7146</MEAN_ANOMALY></meanElements><tleParameters><EPHEMERIS_TYPE>0</EPHEMERIS_TYPE><CLASSIFICATION_TYPE>U</CLASSIFICATION_TYPE><NORAD_CAT_ID>25982</NORAD_CAT_ID><ELEMENT_SET_NO>999</ELEMENT_SET_NO><REV_AT_EPOCH>31984</REV_AT_EPOCH><BSTAR>.62517E-3</BSTAR><MEAN_MOTION_DOT>.1689E-4</MEAN_MOTION_DOT><MEAN_MOTION_DDOT>0</MEAN_MOTION_DDOT></tleParameters></data></segment></body></omm>

</ndm>
